[{"OBJECT_NAME":"COSMOS 2416 (RODNIK-S 1)","OBJECT_ID":"2005-048A","EPOCH":"2026-03-09T21:52:55.501536","MEAN_MOTION":12.55596711,"ECCENTRICITY":0.00089122,"INCLINATION":82.4736,"RA_OF_ASC_NODE":11.1411,"ARG_OF_PERICENTER":35.8698,"MEAN_ANOMALY":25.1897,"EPHEMERIS_TYPE":0,"CLASSIFICATION_TYPE":"U","NORAD_CAT_ID":28908,"ELEMENT_SET_NO":999,"REV_AT_EPOCH":92644,"BSTAR":0.00028202479,"MEAN_MOTION_DOT":5.6e-7,"MEAN_MOTION_DDOT":0},{"OBJECT_NAME":"DELTA 1 DEB","OBJECT_ID":"1978-026DG","EPOCH":"2026-03-09T21:08:59.955072","MEAN_MOTION":13.34322759,"ECCENTRICITY":0.04185082,"INCLINATION":98.9276,"RA_OF_ASC_NODE":195.183,"ARG_OF_PERICENTER":247.6154,"MEAN_ANOMALY":108.0132,"EPHEMERIS_TYPE":0,"CLASSIFICATION_TYPE":"U","NORAD_CAT_ID":12263,"ELEMENT_SET_NO":999,"REV_AT_EPOCH":15653,"BSTAR":0.0046372598,"MEAN_MOTION_DOT":3.76e-5,"MEAN_MOTION_DDOT":0}]
